[{"COMMENT":"GENERATED VIA SPACETRACK.ORG API","ORIGINATOR":"18 SPCS","NORAD_CAT_ID":"43476","OBJECT_NAME":"GRACE-FO 1","OBJECT_TYPE":"PAYLOAD","CLASSIFICATION_TYPE":"U","INTLDES":"18047A","EPOCH":"2023-10-07 18:29:50","EPOCH_MICROSECONDS":"913024","MEAN_MOTION":"15.26990876","ECCENTRICITY":"0.0012128","INCLINATION":"88.9877","RA_OF_ASC_NODE":"333.882","ARG_OF_PERICENTER":"335.7261","MEAN_ANOMALY":"24.3416","EPHEMERIS_TYPE":"0","ELEMENT_SET_NO":"999","REV_AT_EPOCH":"29917","BSTAR":"0.00020538","MEAN_MOTION_DOT":"0.00005476","MEAN_MOTION_DDOT":"0","FILE":"4027382","TLE_LINE0":"0 GRACE-FO 1","TLE_LINE1":"1 43476U 18047A   23280.77072816  .00005476  00000-0  20538-3 0  9990","TLE_LINE2":"2 43476  88.9877 333.8820 0012128 335.7261  24.3416 15.26990876299172","OBJECT_ID":"2018-047A","OBJECT_NUMBER":"43476","SEMIMAJOR_AXIS":"6862.951","PERIOD":"94.303","APOGEE":"493.139","PERIGEE":"476.492","DECAYED":"0"},{"COMMENT":"GENERATED VIA SPACETRACK.ORG API","ORIGINATOR":"18 SPCS","NORAD_CAT_ID":"43476","OBJECT_NAME":"GRACE-FO 1","OBJECT_TYPE":"PAYLOAD","CLASSIFICATION_TYPE":"U","INTLDES":"18047A","EPOCH":"2023-10-07 21:38:35","EPOCH_MICROSECONDS":"193408","MEAN_MOTION":"15.26992014","ECCENTRICITY":"0.0012088","INCLINATION":"88.9877","RA_OF_ASC_NODE":"333.8642","ARG_OF_PERICENTER":"335.1366","MEAN_ANOMALY":"24.9299","EPHEMERIS_TYPE":"0","ELEMENT_SET_NO":"999","REV_AT_EPOCH":"29919","BSTAR":"0.00020248","MEAN_MOTION_DOT":"0.00005399","MEAN_MOTION_DDOT":"0","FILE":"4027648","TLE_LINE0":"0 GRACE-FO 1","TLE_LINE1":"1 43476U 18047A   23280.90179622  .00005399  00000-0  20248-3 0  9990","TLE_LINE2":"2 43476  88.9877 333.8642 0012088 335.1366  24.9299 15.26992014299192","OBJECT_ID":"2018-047A","OBJECT_NUMBER":"43476","SEMIMAJOR_AXIS":"6862.947","PERIOD":"94.303","APOGEE":"493.108","PERIGEE":"476.516","DECAYED":"0"},{"COMMENT":"GENERATED VIA SPACETRACK.ORG API","ORIGINATOR":"18 SPCS","NORAD_CAT_ID":"43476","OBJECT_NAME":"GRACE-FO 1","OBJECT_TYPE":"PAYLOAD","CLASSIFICATION_TYPE":"U","INTLDES":"18047A","EPOCH":"2023-10-08 13:22:16","EPOCH_MICROSECONDS":"412160","MEAN_MOTION":"15.26999573","ECCENTRICITY":"0.0011982","INCLINATION":"88.9877","RA_OF_ASC_NODE":"333.775","ARG_OF_PERICENTER":"332.3609","MEAN_ANOMALY":"27.7002","EPHEMERIS_TYPE":"0","ELEMENT_SET_NO":"999","REV_AT_EPOCH":"29929","BSTAR":"0.00021135","MEAN_MOTION_DOT":"0.00005635","MEAN_MOTION_DDOT":"0","FILE":"4028261","TLE_LINE0":"0 GRACE-FO 1","TLE_LINE1":"1 43476U 18047A   23281.55713440  .00005635  00000-0  21135-3 0  9993","TLE_LINE2":"2 43476  88.9877 333.7750 0011982 332.3609  27.7002 15.26999573299293","OBJECT_ID":"2018-047A","OBJECT_NUMBER":"43476","SEMIMAJOR_AXIS":"6862.925","PERIOD":"94.303","APOGEE":"493.013","PERIGEE":"476.566","DECAYED":"0"},{"COMMENT":"GENERATED VIA SPACETRACK.ORG API","ORIGINATOR":"18 SPCS","NORAD_CAT_ID":"43476","OBJECT_NAME":"GRACE-FO 1","OBJECT_TYPE":"PAYLOAD","CLASSIFICATION_TYPE":"U","INTLDES":"18047A","EPOCH":"2023-10-08 21:14:06","EPOCH_MICROSECONDS":"921312","MEAN_MOTION":"15.27003023","ECCENTRICITY":"0.0011922","INCLINATION":"88.9877","RA_OF_ASC_NODE":"333.7304","ARG_OF_PERICENTER":"330.9422","MEAN_ANOMALY":"29.1162","EPHEMERIS_TYPE":"0","ELEMENT_SET_NO":"999","REV_AT_EPOCH":"29934","BSTAR":"0.00020998","MEAN_MOTION_DOT":"0.000056","MEAN_MOTION_DDOT":"0","FILE":"4028564","TLE_LINE0":"0 GRACE-FO 1","TLE_LINE1":"1 43476U 18047A   23281.88480233  .00005600  00000-0  20998-3 0  9998","TLE_LINE2":"2 43476  88.9877 333.7304 0011922 330.9422  29.1162 15.27003023299345","OBJECT_ID":"2018-047A","OBJECT_NUMBER":"43476","SEMIMAJOR_AXIS":"6862.914","PERIOD":"94.302","APOGEE":"492.961","PERIGEE":"476.597","DECAYED":"0"},{"COMMENT":"GENERATED VIA SPACETRACK.ORG API","ORIGINATOR":"18 SPCS","NORAD_CAT_ID":"43476","OBJECT_NAME":"GRACE-FO 1","OBJECT_TYPE":"PAYLOAD","CLASSIFICATION_TYPE":"U","INTLDES":"18047A","EPOCH":"2023-10-09 03:31:35","EPOCH_MICROSECONDS":"281632","MEAN_MOTION":"15.27005919","ECCENTRICITY":"0.0011883","INCLINATION":"88.9877","RA_OF_ASC_NODE":"333.6947","ARG_OF_PERICENTER":"329.8057","MEAN_ANOMALY":"30.2505","EPHEMERIS_TYPE":"0","ELEMENT_SET_NO":"999","REV_AT_EPOCH":"29938","BSTAR":"0.00020587","MEAN_MOTION_DOT":"0.00005491","MEAN_MOTION_DDOT":"0","FILE":"4028617","TLE_LINE0":"0 GRACE-FO 1","TLE_LINE1":"1 43476U 18047A   23282.14693613  .00005491  00000-0  20587-3 0  9998","TLE_LINE2":"2 43476  88.9877 333.6947 0011883 329.8057  30.2505 15.27005919299388","OBJECT_ID":"2018-047A","OBJECT_NUMBER":"43476","SEMIMAJOR_AXIS":"6862.906","PERIOD":"94.302","APOGEE":"492.926","PERIGEE":"476.615","DECAYED":"0"},{"COMMENT":"GENERATED VIA SPACETRACK.ORG API","ORIGINATOR":"18 SPCS","NORAD_CAT_ID":"43476","OBJECT_NAME":"GRACE-FO 1","OBJECT_TYPE":"PAYLOAD","CLASSIFICATION_TYPE":"U","INTLDES":"18047A","EPOCH":"2023-10-09 14:32:09","EPOCH_MICROSECONDS":"824064","MEAN_MOTION":"15.27010398","ECCENTRICITY":"0.0011829","INCLINATION":"88.9878","RA_OF_ASC_NODE":"333.6324","ARG_OF_PERICENTER":"327.8983","MEAN_ANOMALY":"32.1545","EPHEMERIS_TYPE":"0","ELEMENT_SET_NO":"999","REV_AT_EPOCH":"29945","BSTAR":"0.00019447","MEAN_MOTION_DOT":"0.00005189","MEAN_MOTION_DDOT":"0","FILE":"4029150","TLE_LINE0":"0 GRACE-FO 1","TLE_LINE1":"1 43476U 18047A   23282.60566926  .00005189  00000-0  19447-3 0  9992","TLE_LINE2":"2 43476  88.9878 333.6324 0011829 327.8983  32.1545 15.27010398299454","OBJECT_ID":"2018-047A","OBJECT_NUMBER":"43476","SEMIMAJOR_AXIS":"6862.892","PERIOD":"94.302","APOGEE":"492.875","PERIGEE":"476.639","DECAYED":"0"},{"COMMENT":"GENERATED VIA SPACETRACK.ORG API","ORIGINATOR":"18 SPCS","NORAD_CAT_ID":"43476","OBJECT_NAME":"GRACE-FO 1","OBJECT_TYPE":"PAYLOAD","CLASSIFICATION_TYPE":"U","INTLDES":"18047A","EPOCH":"2023-10-09 22:24:00","EPOCH_MICROSECONDS":"100800","MEAN_MOTION":"15.27014774","ECCENTRICITY":"0.0011743","INCLINATION":"88.9877","RA_OF_ASC_NODE":"333.5878","ARG_OF_PERICENTER":"326.4057","MEAN_ANOMALY":"33.6446","EPHEMERIS_TYPE":"0","ELEMENT_SET_NO":"999","REV_AT_EPOCH":"29950","BSTAR":"0.0002074","MEAN_MOTION_DOT":"0.00005533","MEAN_MOTION_DDOT":"0","FILE":"4029504","TLE_LINE0":"0 GRACE-FO 1","TLE_LINE1":"1 43476U 18047A   23282.93333450  .00005533  00000-0  20740-3 0  9993","TLE_LINE2":"2 43476  88.9877 333.5878 0011743 326.4057  33.6446 15.27014774299502","OBJECT_ID":"2018-047A","OBJECT_NUMBER":"43476","SEMIMAJOR_AXIS":"6862.879","PERIOD":"94.302","APOGEE":"492.803","PERIGEE":"476.685","DECAYED":"0"},{"COMMENT":"GENERATED VIA SPACETRACK.ORG API","ORIGINATOR":"18 SPCS","NORAD_CAT_ID":"43476","OBJECT_NAME":"GRACE-FO 1","OBJECT_TYPE":"PAYLOAD","CLASSIFICATION_TYPE":"U","INTLDES":"18047A","EPOCH":"2023-10-10 10:58:56","EPOCH_MICROSECONDS":"426592","MEAN_MOTION":"15.27020536","ECCENTRICITY":"0.001166","INCLINATION":"88.9876","RA_OF_ASC_NODE":"333.5165","ARG_OF_PERICENTER":"324.1345","MEAN_ANOMALY":"35.912","EPHEMERIS_TYPE":"0","ELEMENT_SET_NO":"999","REV_AT_EPOCH":"29958","BSTAR":"0.00020389","MEAN_MOTION_DOT":"0.0000544","MEAN_MOTION_DDOT":"0","FILE":"4029873","TLE_LINE0":"0 GRACE-FO 1","TLE_LINE1":"1 43476U 18047A   23283.45759753  .00005440  00000-0  20389-3 0  9995","TLE_LINE2":"2 43476  88.9876 333.5165 0011660 324.1345  35.9120 15.27020536299588","OBJECT_ID":"2018-047A","OBJECT_NUMBER":"43476","SEMIMAJOR_AXIS":"6862.862","PERIOD":"94.301","APOGEE":"492.729","PERIGEE":"476.725","DECAYED":"0"},{"COMMENT":"GENERATED VIA SPACETRACK.ORG API","ORIGINATOR":"18 SPCS","NORAD_CAT_ID":"43476","OBJECT_NAME":"GRACE-FO 1","OBJECT_TYPE":"PAYLOAD","CLASSIFICATION_TYPE":"U","INTLDES":"18047A","EPOCH":"2023-10-10 12:33:18","EPOCH_MICROSECONDS":"452736","MEAN_MOTION":"15.27021521","ECCENTRICITY":"0.0011644","INCLINATION":"88.9876","RA_OF_ASC_NODE":"333.5076","ARG_OF_PERICENTER":"323.8304","MEAN_ANOMALY":"36.2157","EPHEMERIS_TYPE":"0","ELEMENT_SET_NO":"999","REV_AT_EPOCH":"29959","BSTAR":"0.00020709","MEAN_MOTION_DOT":"0.00005525","MEAN_MOTION_DDOT":"0","FILE":"4030143","TLE_LINE0":"0 GRACE-FO 1","TLE_LINE1":"1 43476U 18047A   23283.52313024  .00005525  00000-0  20709-3 0  9990","TLE_LINE2":"2 43476  88.9876 333.5076 0011644 323.8304  36.2157 15.27021521299592","OBJECT_ID":"2018-047A","OBJECT_NUMBER":"43476","SEMIMAJOR_AXIS":"6862.859","PERIOD":"94.301","APOGEE":"492.715","PERIGEE":"476.733","DECAYED":"0"},{"COMMENT":"GENERATED VIA SPACETRACK.ORG API","ORIGINATOR":"18 SPCS","NORAD_CAT_ID":"43476","OBJECT_NAME":"GRACE-FO 1","OBJECT_TYPE":"PAYLOAD","CLASSIFICATION_TYPE":"U","INTLDES":"18047A","EPOCH":"2023-10-10 21:59:30","EPOCH_MICROSECONDS":"586272","MEAN_MOTION":"15.27025007","ECCENTRICITY":"0.0011573","INCLINATION":"88.9875","RA_OF_ASC_NODE":"333.454","ARG_OF_PERICENTER":"322.0402","MEAN_ANOMALY":"38.003","EPHEMERIS_TYPE":"0","ELEMENT_SET_NO":"999","REV_AT_EPOCH":"29965","BSTAR":"0.00019231","MEAN_MOTION_DOT":"0.00005133","MEAN_MOTION_DDOT":"0","FILE":"4030441","TLE_LINE0":"0 GRACE-FO 1","TLE_LINE1":"1 43476U 18047A   23283.91632623  .00005133  00000-0  19231-3 0  9995","TLE_LINE2":"2 43476  88.9875 333.4540 0011573 322.0402  38.0030 15.27025007299657","OBJECT_ID":"2018-047A","OBJECT_NUMBER":"43476","SEMIMAJOR_AXIS":"6862.848","PERIOD":"94.301","APOGEE":"492.656","PERIGEE":"476.771","DECAYED":"0"}]